,address,city,latitude,longitude,name,postalCode,province
13,1500 E Main St,Eastland,32.401088,-98.790162,Golden Chick,76448,TX
121,1232 Providence Blvd,Deltona,28.8829,-81.2413,KFC,32725,FL
166,3051 W Apache Trl,Apache Junction,33.415079999999996,-111.57883999999999,KFC,85120,AZ
218,2305 N Saint Marys St,Beeville,28.421414000000002,-97.756843,Golden Chick,78102,TX
221,96 Cannan Dr,Angleton,29.18105,-95.44666,Chicken Express,77515,TX
363,1051 W Maple Ave,Eunice,30.48697,-92.42648,Krispy Krunchy Chicken,70535,LA
443,3820 Lamar Ave,Paris,33.66189,-95.506573,Chicken Express,75462,TX
444,5100 Davis Blvd,North Richland Hills,32.840958,-97.21383,Chicken Express,76180,TX
445,904 W Eldorado Pkwy,Little Elm,33.154826,-96.946861,Chicken Express,75068,TX
446,4704 4th St,Lubbock,33.59233,-101.914511,Chicken Express,79416,TX
447,791 Keller Pkwy,Keller,32.934360999999996,-97.23605699999999,Chicken Express,76248,TX
448,305 N Rice St,Hamilton,31.721935,-98.118673,Chicken Express,76531,TX
449,1108 N Grand Ave,Gainesville,33.636432,-97.13330500000001,Chicken Express,76240,TX
450,1451 E Main St,Eastland,32.401465,-98.791001,Chicken Express,76448,TX
594,7199 Mission St,Daly City,37.69382,-122.46455800000001,KFC,94014,CA
597,9345 Parkway E,Birmingham,33.590333,-86.697132,Chick-fil-A,35215,AL
598,1005 Foxcroft Ave,Martinsburg,39.446673,-77.986674,Chick-fil-A,25401,WV
599,1300 N Eisenhower Dr,Beckley,37.802793,-81.181533,Chick-fil-A,25801,WV
600,5003a Victory Blvd,Yorktown,37.115608,-76.468184,Chick-fil-A,23693,VA
601,6732 Mooretown Rd,Williamsburg,37.339529999999996,-76.738285,Chick-fil-A,23188,VA
602,5409 Indian River Rd,Virginia Beach,36.798702,-76.178946,Chick-fil-A,23464,VA
603,4802 Valley View Blvd NW,Roanoke,37.308619,-79.96242600000001,Chick-fil-A,24012,VA
605,4374 Electric Rd,Roanoke,37.228457,-79.977693,Chick-fil-A,24018,VA
606,9100 W Broad St,Henrico,37.636558,-77.549903,Chick-fil-A,23294,VA
611,1205 N Military Hwy,Norfolk,36.864964,-76.210719,Chick-fil-A,23502,VA
612,2901 Candlers Mountain Rd,Lynchburg,37.36773,-79.175586,Chick-fil-A,24502,VA
613,2140 Coliseum Dr,Hampton,37.048521,-76.39071700000001,Chick-fil-A,23666,VA
614,1698 Carl D Silver Pkwy,Fredericksburg,38.305008,-77.509345,Chick-fil-A,22401,VA
615,325 Piedmont Dr,Danville,36.595957,-79.422353,Chick-fil-A,24540,VA
616,4412 Chantilly Pl,Chantilly,38.887485,-77.44462299999999,Chick-fil-A,20151,VA
617,1576 Rio Rd E,Charlottesville,38.078584,-78.473337,Chick-fil-A,22901,VA
618,350 Woodbrook Dr,Charlottesville,38.088271999999996,-78.471184,Chick-fil-A,22901,VA
619,6191 S State St,Salt Lake City,40.636461,-111.886187,Chick-fil-A,84107,UT
708,946 Highway 69,Fort Scott,37.79675,-94.70744,Krispy Krunchy Chicken,66701,KS
727,215 W 11th St,Coffeyville,37.0326,-95.6188,KFC,67337,KS
868,4239 Winterville Pkwy,Winterville,35.546412,-77.404309,Chick-fil-A,28590,NC
875,6108C Arlington Blvd,Falls Church,38.868724,-77.144013,Chick-fil-A,22044,VA
1103,942 Flatbush Ave,Brooklyn,40.648476,-73.958572,KFC,11226,NY
1104,4001 N 5th St,Philadelphia,40.011978000000006,-75.135868,KFC,19140,PA
1394,11670 Carmel Mountain Rd,San Diego,32.979812,-117.08054299999999,Chick-fil-A,92128,CA
1553,208 McGuinness Blvd,Brooklyn,40.729763,-73.950623,KFC,11222,NY
1556,4010 82nd St,Elmhurst,40.747262,-73.884064,Popeyes,11373,NY
1562,3280 Peachtree Rd NE,Atlanta,33.844431,-84.371128,Chick-fil-A,30305,GA
1571,4410 North Fwy,Houston,29.829027000000004,-95.38047213,Chick-fil-A,77022,TX
1572,7901 Bardstown Rd,Louisville,38.133998999999996,-85.578739,Chick-fil-A,40291,KY
1573,14040 N Pennsylvania Ave,Oklahoma City,35.61291,-97.54906,Chick-fil-A,73134,OK
1743,7661 Raeford Road,Fayetteville,35.026886,-79.052482,Bojangles,28304,NC
1744,7339 Broad River Road,Irmo,34.095532,-81.159696,Bojangles,29063,SC
1745,803 West Dixon Blvd,Shelby,35.2826,-81.556032,Bojangles,28152,NC
1746,930 Elmwood Ave,Columbia,34.011804,-81.042404,Bojangles,29201,SC
1772,1130 Alameda St,Norman,35.218379999999996,-97.424256,Raising Cane's,73071,OK
1791,109 Robert Smalls Pkwy,Beaufort,32.433524,-80.71179000000001,Bojangles,29906,SC
1792,1196 East Jackson Blvd,Jonesborough,36.302524,-82.455268,Bojangles,37659,TN
1793,301 Market Drive,Lenoir City,35.821548,-84.269667,Bojangles,37771,TN
1794,3927 Victory Blvd,Portsmouth,36.80945,-76.358526,Bojangles,23701,VA
1795,12441 Warwick Blvd,Newport News,37.071603,-76.493955,Bojangles,23606,VA
1796,534 Rice Ave,Union,34.719619,-81.639211,Bojangles,29379,SC
1797,2514 Clements Ferry Road,Charleston,32.894794,-79.923733,Bojangles,29492,SC
1913,211 Pelham Rd,Greenville,34.863624,-82.34448499999999,Golden Chick,29615,SC
2373,825 Dulaney Valley Rd Ste 3285,Towson,39.403864,-76.59874,Chick-fil-A,21204,MD
2374,8609 Westheimer Rd,Houston,29.736944,-95.517753,Chick-fil-A,77063,TX
2674,14205 Trinity Blvd,Fort Worth,32.822720000000004,-97.05834,Golden Chick,76155,TX
2720,1880 Metropolitan Pkwy SW,Atlanta,33.7031,-84.407619,KFC,30315,GA
2777,2801 Guess Rd,Durham,36.030453,-78.92837,Bojangles,27705,NC
2781,6140 S Gun Club Rd,Aurora,39.604217,-104.716755,Wingstop,80016,CO
2783,14221 E Cedar Ave,Aurora,39.712897999999996,-104.823072,Wingstop,80012,CO
2784,1648 Decoto Rd,Union City,37.589306,-122.020772,Wingstop,94587,CA
2785,1838 E Avenue J,Lancaster,34.689558,-118.096318,Wingstop,93535,CA
2786,1610 N 75th Ave,Phoenix,33.46672,-112.22069099999999,Wingstop,85035,AZ
3212,949 Commonwealth Ave,Boston,42.351915999999996,-71.118713,Raising Cane's,2215,MA
3368,2992 65th St,Sacramento,38.547127,-121.428178,Wingstop,95817,CA
3390,17501 Colima Rd,Rowland Heights,33.9913,-117.9246,Wingstop,91748,CA
3403,15242 Wallisville Rd,Houston,29.80661,-95.16805,Wingstop,77049,TX
3460,8 Pearson Blvd,Gardner,42.56641,-71.98049,KFC,1440,MA
3496,1700 S 4th St,Chickasha,35.03297,-97.93538000000001,Chicken Express,73018,OK
3512,510 Nc Highway 9,Black Mountain,35.610166,-82.31876,KFC,28711,NC
3593,12501 N Mo Pac Expy,Austin,30.418206,-97.704414,Chick-fil-A,78727,TX
3594,902 W Mcdermott Dr,Allen,33.101734,-96.683104,Chick-fil-A,75013,TX
3595,3811 S Cooper St,Arlington,32.68012,-97.129091,Chick-fil-A,76015,TX
3597,4700 S Cooper St,Arlington,32.670056,-97.135188,Chick-fil-A,76017,TX
3598,2000 Gallatin Pike N,Madison,36.302645,-86.694854,Chick-fil-A,37115,TN
3599,6564 Clinton Hwy,Knoxville,36.007399,-84.013858,Chick-fil-A,37912,TN
3600,800 S Gay St,Knoxville,35.962623,-83.91667199999999,Chick-fil-A,37929,TN
3601,1205 E Stone Dr,Kingsport,36.55093,-82.528571,Chick-fil-A,37660,TN
3602,2101 Fort Henry Dr,Kingsport,36.5285,-82.519757,Chick-fil-A,37664,TN
3603,10916 Parkside Dr,Knoxville,35.902794,-84.147835,Chick-fil-A,37934,TN
3604,3063 Mallory Ln,Franklin,35.94416,-86.820688,Chick-fil-A,37067,TN
3605,305 Old Lebanon Dirt Rd,Hermitage,36.191323,-86.614614,Chick-fil-A,37076,TN
3606,1804 Gunbarrel Rd,Chattanooga,35.023794,-85.15864,Chick-fil-A,37421,TN
3607,5560 Sunset Blvd,Lexington,33.995546000000004,-81.224659,Chick-fil-A,29072,SC
3608,1379 W Wade Hampton Blvd,Greer,34.93929,-82.266398,Chick-fil-A,29650,SC
3609,901 9th St,Lancaster,34.708915000000005,-80.77843299999999,Chick-fil-A,29720,SC
3644,2215 W Gentry Pkwy,Tyler,32.366732,-95.32554,KFC,75702,TX
3683,229 Bush River Rd,Columbia,34.030953000000004,-81.0892,Chick-fil-A,29210,SC
3684,10136 Two Notch Rd,Columbia,34.116748,-80.878371,Chick-fil-A,29229,SC
3685,2070 Sam Rittenberg Blvd,Charleston,32.792246,-80.030764,Chick-fil-A,29407,SC
3686,1665 State Hill Rd,Reading,40.33835,-75.97251,Chick-fil-A,19610,PA
3687,461 Clairton Blvd,Pittsburgh,40.335529,-79.94725799999999,Chick-fil-A,15236,PA
3688,6379 Hamilton Blvd,Allentown,40.5554,-75.58183299999999,Chick-fil-A,18106,PA
3689,805 Baltimore Pike,Springfield,39.916857,-75.33369,Chick-fil-A,19064,PA
3690,1000 Ross Park Mall Dr,Pittsburgh,40.541146000000005,-80.006528,Chick-fil-A,15237,PA
3691,901 Market St,Philadelphia,39.951333,-75.155183,Chick-fil-A,19107,PA
3692,2204 S Columbus Blvd,Philadelphia,39.919416999999996,-75.140662,Chick-fil-A,19148,PA
3693,280 Exton Square Mall,Exton,40.030127,-75.623315,Chick-fil-A,19341,PA
3695,1051 Boardman Poland Rd,Youngstown,41.024263,-80.634078,Chick-fil-A,44514,OH
3696,4779 Great Northern Blvd,North Olmsted,41.419311,-81.901738,Chick-fil-A,44070,OH
3697,8787 Sancus Blvd,Columbus,40.142638,-82.99054100000001,Chick-fil-A,43240,OH
3699,7850 Mentor Ave,Mentor,41.661075,-81.36077900000001,Chick-fil-A,44060,OH
3700,1500 Polaris Pkwy,Columbus,40.145446,-82.980637,Chick-fil-A,43240,OH
3701,7401 Market St,Youngstown,41.021026,-80.662723,Chick-fil-A,44512,OH
3726,2205 Versailles Rd,Lexington,38.047396,-84.549367,KFC,40504,KY
3790,4835 N Austin Ave,Chicago,41.968476,-87.778101,KFC,60630,IL
4053,5668 Baltimore National Pike,Catonsville,39.288587,-76.72975100000001,Chick-fil-A,21228,MD
4054,8867 Belair Rd,Nottingham,39.397186,-76.481889,Chick-fil-A,21236,MD
4055,7010 Youree Dr,Shreveport,32.442777,-93.718342,Chick-fil-A,71105,LA
4056,197 Westbank Expy,Gretna,29.922184,-90.04190899999999,Chick-fil-A,70053,LA
4057,5953 W Park Ave,Houma,29.631622999999998,-90.756727,Chick-fil-A,70364,LA
4058,69280 Highway 21,Covington,30.442456,-90.14316099999999,Chick-fil-A,70433,LA
4059,4801 Outer Loop,Louisville,38.13812,-85.673377,Chick-fil-A,40219,KY
4067,210 W Mercer St,Seattle,47.624604,-122.359508,KFC,98119,WA
4215,173 Washington Ave,North Haven,41.398590000000006,-72.853325,Popeyes,6473,CT
4225,4411 Lemmon Ave,Dallas,32.818159,-96.81343000000001,Wingstop,75219,TX
4248,885 Thornton Road,Lithia Springs,33.780097999999995,-84.608289,Bojangles,30122,GA
4353,12000 NW 7th Ave,Miami,25.884975,-80.211016,Pollo Tropical,33168,FL
4515,527 W Main St,New Britain,41.665896999999994,-72.799648,Popeyes,6053,CT
4551,1210 E 2nd St,Edmond,35.652151,-97.46391,Chick-fil-A,73034,OK
5113,20101 Sherman Way,Winnetka,34.201137,-118.571032,KFC,91306,CA
5114,12910 Foothill Blvd,Sylmar,34.294302,-118.416051,KFC,91342,CA
5274,529 N Stewart St,Azle,32.893012,-97.537666,Chicken Express,76020,TX
5275,1711 Bethel Rd,Weatherford,32.736443,-97.800159,Chicken Express,76086,TX
5277,1270 S Southwest Loop 323,Tyler,32.336239,-95.340249,Chicken Express,75701,TX
5278,4308 College Ave,Snyder,32.698772,-100.919125,Chicken Express,79549,TX
5439,14150 SW 8th St,Miami,25.760929,-80.424805,Pollo Tropical,33184,FL
5440,1819 S Federal Hwy,Fort Lauderdale,26.098710999999998,-80.13708199999999,Pollo Tropical,33316,FL
5600,221 Banks Sta,Fayetteville,33.468348,-84.442533,Chick-fil-A,30214,GA
5601,3555 Peachtree Industrial Blvd,Duluth,34.001608000000004,-84.169754,Chick-fil-A,30096,GA
5602,3410 Camp Creek Pkwy,Atlanta,33.653994,-84.506169,Chick-fil-A,30344,GA
5603,1065 Cleveland Ave,Atlanta,33.681416,-84.42397700000001,Chick-fil-A,30344,GA
5604,1517 W Walnut Ave,Dalton,34.760464,-84.996358,Chick-fil-A,30720,GA
5605,115 Cherokee Pl,Cartersville,34.17173,-84.78239599999999,Chick-fil-A,30121,GA
5606,2922 Watson Blvd,Centerville,32.618462,-83.684043,Chick-fil-A,31028,GA
5607,130 Keith Dr,Canton,34.257257,-84.46384599999999,Chick-fil-A,30114,GA
5608,3235 Buford Dr,Buford,34.064684,-83.988919,Chick-fil-A,30519,GA
5609,70 Golden Isles Plz,Brunswick,31.212234000000002,-81.491626,Chick-fil-A,31520,GA
5610,340 Boulevard NE,Atlanta,33.763596,-84.37228499999999,Chick-fil-A,30312,GA
5611,3450 Wrightsboro Rd,Augusta,33.467304999999996,-82.08037,Chick-fil-A,30909,GA
5612,2601 Dawson Rd,Albany,31.6135,-84.215807,Chick-fil-A,31707,GA
5613,2703 Dawson Rd,Albany,31.615919,-84.21923000000001,Chick-fil-A,31707,GA
5663,333 Cornelia St,Plattsburgh,44.697027,-73.48049,KFC,12901,NY
5666,212 14th Street,Williston,48.158162,-103.626886,KFC,58801,ND
5667,1711 W Palestine Ave,Palestine,31.752737,-95.64949,KFC,75801,TX
5668,9227 Cullen Blvd,Houston,29.657598999999998,-95.355189,KFC,77051,TX
5675,3340 Mall Loop Dr Louis Joliet Mall Louis Joliet Mall,Joliet,41.575031,-88.15616700000001,KFC, 60431-1057,IL
5682,9445 Greenwell Springs Rd,Baton Rouge,30.486089,-91.082851,KFC,70814,LA
5687,41850 Moreno Rd,Temecula,33.529215,-117.132981,KFC,92590,CA
5690,294 W Granada Blvd,Ormond Beach,29.282165999999997,-81.063285,KFC,32174,FL
5694,1817 Mount Holly Rd,Burlington,40.052507,-74.841615,Chick-fil-A,8016,NJ
5696,2017 Lake Rd,Hiram,33.890714,-84.750513,Bojangles,30141,GA
5702,3601 S Bristol St,Santa Ana,33.699643,-117.88502199999999,Chick-fil-A,92704,CA
5716,705 W Newport Pike,Wilmington,39.714249,-75.617018,KFC,19804,DE
5721,3826 US Highway 23,Portsmouth,38.783775,-82.984373,KFC,45662-8620,OH
5728,17513 Bruce B Downs Blvd,Tampa,28.127159999999996,-82.368126,Chick-fil-A,33647,FL
5731,5802 Charlotte Pike,Nashville,36.149553999999995,-86.861804,KFC,37209,TN
5746,2727 Fairfield Commons Blvd,Dayton,39.76699,-84.05674599999999,Chick-fil-A,45431,OH
5750,2180 W Broad St,Athens,33.950443,-83.408596,KFC,30606,GA
5760,434 Woodbridge Ctr,Woodbridge,40.556096999999994,-74.297002,Chick-fil-A,7095,NJ
5761,1115 Paris Rd,Mayfield,36.723490999999996,-88.62818,KFC,42066,KY
5774,908 Barnes Crossing Rd,Tupelo,34.316271,-88.703727,Chick-fil-A,38804,MS
5799,356 Whiteville,Shallotte,33.974298,-78.40225799999999,Bojangles,28470,NC
5818,2992 N College Ave,Fayetteville,36.106162,-94.145696,KFC,72703,AR
5826,533 Highway 90,Bay Saint Louis,30.318225,-89.34435500000001,Popeyes,39520,MS
5827,1701 S Gloster St,Tupelo,34.219182,-88.719546,Popeyes,38801,MS
5843,6792 Cherry Ave,Long Beach,33.877909,-118.168233,Wingstop,90805,CA
5865,85 Parkhurst Rd,Chelmsford,42.62576,-71.359546,Popeyes,1824,MA
5875,13435 N Highway 183,Austin,30.448117,-97.789305,KFC,78750,TX
5880,7832 Richmond Hwy,Alexandria,38.745239,-77.08431999999999,Popeyes,22306,VA
5889,7604 Old State Road 60,Sellersburg,38.371705,-85.757802,KFC,47172,IN
5905,6515 W Loop 1604N,San Antonio,29.498362,-98.70389399999999,Pollo Tropical,78254,TX
5915,7010 Central Ave SE,Albuquerque,35.075613,-106.56873999999999,KFC,87108,NM
5934,626 Atlantic Blvd,Neptune Beach,30.324208000000002,-81.404114,KFC,32266,FL
5935,1190 NW 62nd St,Miami,25.831756,-80.216247,KFC,33150,FL
5937,1180 N Shoop Ave,Wauseon,41.563837,-84.134158,KFC,43567,OH
5950,23925 Linden Blvd,Elmont,40.690328,-73.723623,Popeyes,11003,NY
5951,5800 Perkiomen Ave,Reading,40.29623,-75.84056899999999,KFC,19606,PA
5969,315 N Bittersweet Rd,Mishawaka,41.665239,-86.110049,KFC,46544,IN
5973,25320 Gratiot Ave,Roseville,42.482252,-82.945722,KFC,48066,MI
5982,8190 W Commercial Blvd,Fort Lauderdale,26.19333,-80.25870400000001,Chick-fil-A,33351,FL
5983,13006 W Indian School Rd,Litchfield Park,33.493293,-112.287416,KFC,85340,AZ
5984,2656 W 12th St,Erie,42.10202,-80.140725,KFC,16505,PA
5986,4112 Lankford Highway,Exmore,37.523204,-75.83216,KFC,23350,VA
5991,3507 McCann Rd,Longview,32.539153000000006,-94.754768,Golden Chick,75605,TX
6001,717 12th St SE,Rochester,44.007282000000004,-92.452914,KFC,55904,MN
6022,4502 W Fuqua St,Houston,29.61365,-95.446252,Popeyes,77045,TX
6023,845 E 149th St,Bronx,40.812364,-73.904463,Popeyes,10455,NY
6026,8322 US Highway 51 N,Millington,35.353446999999996,-89.896846,KFC,38053,TN
6066,3050 Service Road I55,Marion,35.207853,-90.204615,KFC,72364,AR
6072,6540 W Thomas Rd,Phoenix,33.480788000000004,-112.20085300000001,Popeyes,85033,AZ
6079,13745 Paramount Blvd,South Gate,33.910865,-118.16094,Popeyes,90280,CA
6088,7901 N Oracle Rd,Tucson,32.349872,-110.97581699999999,KFC,85704,AZ
6094,8036 Pacific Ave 313,Tacoma,47.183343,-122.43433700000001,KFC,98408,WA
6097,1410 25th Street NW,Cleveland,35.190157,-84.881077,Bojangles,37312,TN
6103,300 Main St,Nashua,42.75091,-71.4606,KFC,3060,NH
6109,3026 N Ashley St,Valdosta,30.873267,-83.290779,KFC,31602,GA
6118,958 Bethel St,Clover,35.106429999999996,-81.21077,KFC,29710,SC
6131,3220 Solomons Island Rd,Edgewater,38.932320000000004,-76.568046,Chick-fil-A,21037,MD
6149,6880 Highway 64,Oakland,35.228561,-89.522319,KFC,38060,TN
6158,6140 N Mesa St,El Paso,31.831673,-106.531539,KFC,79912,TX
6176,171 Danada Sq E,Wheaton,41.831161,-88.10346700000001,KFC,60189,IL
6180,5425 Blueberry Ln,Fruitport,43.153785,-86.198768,KFC,49415,MI
6182,1525 W W T Harris Blvd,Charlotte,35.311307,-80.772514,Chick-fil-A,28262,NC
6198,1290 N Warpole St,Upper Sandusky,40.839974,-83.292873,KFC,43351,OH
6200,1 W Burnside Ave,Bronx,40.853766,-73.90733900000001,KFC,10453,NY
6206,4303 Lemmon Ave,Dallas,32.81674,-96.81180400000001,KFC,75219,TX
6755,1906 W Broadway Ave,Sulphur,34.506311,-96.99327199999999,Golden Chick,73086,OK
6756,1207 E Wise St,Bowie,33.550876,-97.836264,Golden Chick,76230,TX
6757,616 W Stassney Ln,Austin,30.208436,-97.781257,Golden Chick,78745,TX
6759,9600 N Lamar Blvd,Austin,30.365671000000003,-97.695913,Golden Chick,78753,TX
6760,1320 N Hamilton Rd,Columbus,40.054614,-82.863745,Raising Cane's,43230,OH
6827,1022 Highway 377 N,Whitesboro,33.638354,-96.90817,Golden Chick,76273,TX
6828,1741 W Oaklawn Rd,Pleasanton,28.945028999999998,-98.505655,Golden Chick,78064,TX
6829,300 N Alamo St,Refugio,28.308218,-97.274514,Golden Chick,78377,TX
6830,101 E Martin Luther King Dr,San Marcos,29.880405,-97.94061500000001,Golden Chick,78666,TX
6831,4525 Gus Thomasson Rd,Mesquite,32.823895,-96.647264,Golden Chick,75150,TX
6832,3113 NE 2nd St,Mineral Wells,32.810808,-98.0862,Golden Chick,76067,TX
6833,2813 Fort Worth Hwy,Weatherford,32.757579,-97.711056,Golden Chick,76087,TX
6834,610 Indian Trl,Harker Heights,31.077973999999998,-97.655563,Golden Chick,76548,TX
6835,300 N Bell Ave,Denton,33.216705,-97.127899,Golden Chick,76209,TX
7021,1200 Mckinney St,Houston,29.755273,-95.363045,Chick-fil-A,77010,TX
7022,1245 William D Tate Ave,Grapevine,32.928141,-97.086134,Chick-fil-A,76051,TX
7023,750 Sunland Park Dr,El Paso,31.816812,-106.543191,Chick-fil-A,79912,TX
7024,4523 Frankford Rd,Dallas,32.998041,-96.83155,Chick-fil-A,75287,TX
7026,5488 S Padre Island Dr,Corpus Christi,27.709606,-97.3734,Chick-fil-A,78411,TX
7047,1545 Rocky Mountain Ave,Loveland,40.409858,-105.002321,Chick-fil-A,80538,CO
7048,3700 E Highlands Ranch Pkwy,Littleton,39.543774,-104.945425,Chick-fil-A,80126,CO
7050,912 Pleasant Grove Blvd,Roseville,38.784109,-121.286194,Chick-fil-A,95678,CA
7056,3640 Grand Ave,Chino Hills,34.002371999999994,-117.727824,Chick-fil-A,91709,CA
7059,4908 S Power Rd,Mesa,33.335184000000005,-111.68713899999999,Chick-fil-A,85212,AZ
7061,6000 W Markham St,Little Rock,34.753544,-92.343094,Chick-fil-A,72205,AR
7063,6810 Rogers Ave,Fort Smith,35.355781,-94.35781899999999,Chick-fil-A,72903,AR
7088,996 W Highway 287 Byp,Waxahachie,32.423705,-96.85221700000001,Chick-fil-A,75165,TX
7089,2525 S Main St,Weatherford,32.72334,-97.785822,Chick-fil-A,76087,TX
7090,4310 Franklin Ave,Waco,31.526307,-97.163584,Chick-fil-A,76710,TX
7131,541 Lake Ave,Rochester,43.174676,-77.630208,Popeyes,14613,NY
7275,1592 W 49th St,Hialeah,25.866516,-80.314634,Pollo Tropical,33012,FL
7287,13600 Baltimore Ave,Laurel,39.076246999999995,-76.86823299999999,Chick-fil-A,20707,MD
7288,19945 Century Blvd,Germantown,39.183474,-77.26263900000001,Chick-fil-A,20874,MD
7289,6709 Ritchie Hwy,Glen Burnie,39.192571,-76.61339100000001,Chick-fil-A,21061,MD
7290,221 Williams St,Cumberland,39.648138,-78.756651,Chick-fil-A,21502,MD
7365,1418 Nixon Dr,Mount Laurel,39.941878,-74.958529,Chick-fil-A,8054,NJ
7366,555 Marketplace Blvd,Trenton,40.194602,-74.641026,Chick-fil-A,8691,NJ
7367,924 Hanes Mall Blvd,Winston-Salem,36.065069,-80.31248599999999,Chick-fil-A,27103,NC
7368,3500 Oleander Dr,Wilmington,34.217335999999996,-77.907135,Chick-fil-A,28403,NC
7375,9731 Callabridge Ct,Charlotte,35.326722,-80.944874,Chick-fil-A,28216,NC
7376,8648 Jw Clay Blvd,Charlotte,35.310345,-80.752252,Chick-fil-A,28262,NC
7377,8433 Davis Lake Pkwy,Charlotte,35.333949,-80.811203,Chick-fil-A,28269,NC
7378,6565 Ingram Rd,San Antonio,29.466348999999997,-98.616849,Chick-fil-A,78238,TX
7379,18310 Blanco Rd,San Antonio,29.610421000000002,-98.50831099999999,Chick-fil-A,78258,TX
7380,4001 Sunset Dr,San Angelo,31.428489000000003,-100.49591,Chick-fil-A,76904,TX
7381,3805 E 42nd St,Odessa,31.891381,-102.34380300000001,Chick-fil-A,79762,TX
7382,3054 Town East Mall,Mesquite,32.807268,-96.626141,Chick-fil-A,75150,TX
7383,800 N Walnut Creek Dr,Mansfield,32.574975,-97.133147,Chick-fil-A,76063,TX
7800,8669 Philadelphia Rd,Rosedale,39.33551,-76.492509,Popeyes,21237,MD
7882,3217 Pineville Matthews Rd,Charlotte,35.099013,-80.781712,Chick-fil-A,28226,NC
7884,201 S Estes Dr,Chapel Hill,35.930634000000005,-79.03756700000001,Chick-fil-A,27514,NC
7885,3015 South Blvd,Charlotte,35.197953999999996,-80.868866,Chick-fil-A,28209,NC
7886,2082 Blowing Rock Rd,Boone,36.196591,-81.654404,Chick-fil-A,28607,NC
7887,1001 Barnes Crossing Rd,Tupelo,34.315558,-88.693173,Chick-fil-A,38804,MS
7901,2001 E Dixon Blvd,Shelby,35.269061,-81.484525,Chick-fil-A,28152,NC
7902,4325 Glenwood Ave,Raleigh,35.83932,-78.679022,Chick-fil-A,27612,NC
7903,348 Four Seasons Town Ctr,Greensboro,36.04037,-79.835225,Chick-fil-A,27407,NC
7904,619 N Berkeley Blvd,Goldsboro,35.375034,-77.944168,Chick-fil-A,27534,NC
7905,3350 E Franklin Blvd,Gastonia,35.258340000000004,-81.120423,Chick-fil-A,28056,NC
7906,3429 Hillsborough Rd,Durham,36.01977,-78.947328,Chick-fil-A,27705,NC
7907,6910 Fayetteville Rd,Durham,35.902321,-78.93948,Chick-fil-A,27713,NC
7908,1480 Concord Pkwy N,Concord,35.440395,-80.604185,Chick-fil-A,28025,NC
7909,1544 Concord Pkwy N,Concord,35.441381,-80.60775600000001,Chick-fil-A,28025,NC
7989,2304 Maple Ave,Burlington,36.0672,-79.4275,KFC,27215,NC
8004,1164 Jericho Tpke,Commack,40.846,-73.2661,KFC,11725,NY
8006,594 Middle Country Rd,Saint James,40.8596,-73.1611,KFC,11780,NY
8007,533 Medford Ave,Patchogue,40.7874,-73.0084,KFC,11772,NY
8015,377 Amherst St,Nashua,42.7845,-71.50755,Chick-fil-A,3063,NH
8018,9418 Mission Gorge Rd,Santee,32.83902997,-116.9931149,Chick-fil-A,92071,CA
8028,1501 Edwin Miller Blvd,Martinsburg,39.488434000000005,-77.95744307,KFC,25404,WV
8044,29 E Broad St,Bridgeton,39.4271,-75.2335,KFC,8302,NJ
8066,11428 Panama City Beach Pkwy,Panama City Beach,30.205090000000002,-85.826914,Chick-fil-A,32407,FL
8073,16800 US Highway 441,Mount Dora,28.8212,-81.6773,KFC,32757,FL
8078,723 W Arrow Hwy,San Dimas,34.1063,-117.81966000000001,KFC,91773,CA
8094,2253 S Buckner Blvd,Dallas,32.752001,-96.683417,Golden Chick,75227,TX
8133,6362 3 Mile Rd,Bay City,43.557438,-83.951823,KFC,48706,MI
8162,198 S Mulberry St,Logan,39.5381,-82.40673000000001,KFC,43138,OH
8177,5625 Lawrenceville Hwy,Lilburn,33.88069,-84.165712,Bojangles,30047,GA
8178,9101 Kingston Pike,Knoxville,35.912587,-84.08466700000001,Bojangles,37923,TN
8179,2 Kaylans Way,Piedmont,34.776345,-82.46645799999999,Bojangles,29673,SC
8180,1253 Cleveland Hwy,Dalton,34.793537,-84.962645,Bojangles,30721,GA
8181,1046 Charlotte Hwy,Troutman,35.669592,-80.854056,Bojangles,28166,NC
8182,1064 Blowing Rock,Boone,36.204747999999995,-81.668966,Bojangles,28607,NC
8183,1301 S Cannon Blvd,Kannapolis,35.477214000000004,-80.610987,Bojangles,28081,NC
8184,1204 Wade Hampton,Greer,34.943144000000004,-82.25698299999999,Bojangles,29651,SC
8185,1235 Jesse Jewell Pkwy,Gainesville,34.287283,-83.837358,Bojangles,30501,GA
8189,4023 Powder Springs Rd SW,Powder Springs,33.85928175,-84.6713857,KFC,30127,GA
8192,10428 S Cicero Ave,Oak Lawn,41.70268,-87.74056,KFC,60453,IL
8195,1148 W Manchester Ave,Los Angeles,33.96001,-118.29526000000001,KFC,90044,CA
8197,20220 W Catawba Ave,Cornelius,35.4824,-80.8792,KFC,28031,NC
8203,1205 US Highway 80 E,Pooler,32.11068928,-81.23475066,KFC,31322,GA
8206,8803 US Highway 301 N,Parrish,27.5442,-82.4743,KFC,34219,FL
8213,5697 Calle Real,Goleta,34.44082,-119.82328000000001,KFC,93117,CA
8221,3880 Hempstead Tpke,Levittown,40.7255,-73.4924,KFC,11756,NY
8236,8221 Marbach Rd,San Antonio,29.41795,-98.65278,Chick-fil-A,78227,TX
8240,4698 Border Village Rd,San Ysidro,32.5473,-117.03418,KFC,92173,CA
8241,2907 Thousand Oaks Dr,San Antonio,29.5782,-98.4409,KFC,78247,TX
8243,1641 Grand Ave,San Diego,32.79803,-117.23928000000001,KFC,92109,CA
8250,357 E 12300 S,Draper,40.527149,-111.880793,Chick-fil-A,84020,UT
8266,2437 W Main St,Norman,35.21894,-97.47861999999999,Chick-fil-A,73069,OK
8309,1792 Hwy 14 East,Landrum,35.180476,-82.16136999999999,Bojangles,29356,SC
8310,2780 Hwy 501,Aynor,33.995021,-79.203855,Bojangles,29511,SC
8311,4092 Atlanta Hwy,Loganville,33.845852,-83.910179,Bojangles,30052,GA
8343,20 Hempstead Ave,Hempstead,40.70408891,-73.6384697,KFC,11550,NY
8352,695 Atlanta Rd,Cumming,34.1874,-84.1437,KFC,30040,GA
8353,1706 W Market St,Bloomington,40.48317,-89.01937,KFC,61701,IL
8354,14400 San Pablo Ave,San Pablo,37.965837,-122.34441499999998,KFC,94806,CA
8361,7285 Battle Hill Dr,Mechanicsville,37.60824,-77.35565,Chick-fil-A,23111,VA
8368,1797 Asheville Hwy,Spartanburg,34.9835,-81.971,KFC,29303,SC
8378,9935 W McDowell Rd,Avondale,33.46463,-112.27328,Raising Cane's,85392,AZ
8397,109 Cavasina Dr,Canonsburg,40.2629,-80.1746,KFC,15317,PA
8401,14 Hilltop Plz,Kittanning,40.81281452,-79.54347387,KFC,16201,PA
8403,262 Boston Post Rd,Port Chester,40.99649,-73.672113,KFC,10573,NY
8404,1556 Myrtle Ave,Brooklyn,40.699341,-73.911385,KFC,11237,NY
8502,41226 US Highway 19 N,Tarpon Springs,28.1471,-82.7413,KFC,34689,FL
8506,5004 Slide Rd,Lubbock,33.548,-101.9229,KFC,79414,TX
8507,907 University Ave,Lubbock,33.5872,-101.87058,Raising Cane's,79401,TX
8512,18203 W Interstate 10,San Antonio,29.613646999999997,-98.60393499999999,Chick-fil-A,78257,TX
8518,1418 Austin Hwy,San Antonio,29.49155,-98.4382,Raising Cane's,78209,TX
8540,7386 E Shea Blvd,Scottsdale,33.58229,-111.92203,Raising Cane's,85260,AZ
8545,4001 E Anaheim St,Long Beach,33.782782,-118.14563729999999,KFC,90804,CA
8549,2201 War Admiral Way,Lexington,38.04029133,-84.42822412,Raising Cane's,40509,KY
8554,1040 N Bell Blvd,Cedar Park,30.5215,-97.83,KFC,78613,TX
8564,1925 7th Ave,Marion,42.03302,-91.59062,KFC,52302,IA
8577,3041 W Camp Wisdom Rd,Grand Prairie,32.64781,-97.05877,Chick-fil-A,75052,TX
8580,1402 W Trade St,Charlotte,35.236391,-80.85838000000001,Bojangles,28216,NC
8612,810 Canandaigua Rd,Geneva,42.85712399,-77.01211988,KFC,14456,NY
8620,1308 Molalla Ave,Oregon City,45.3358,-122.5908,KFC,97045,OR
8630,865 Rostraver Rd,Belle Vernon,40.1382,-79.84298000000001,KFC,15012,PA
8644,1505 N DuPont Hwy,New Castle,39.691005,-75.581193,Popeyes,19720,DE
8655,2930 Carnegie Ave,Cleveland,41.499866,-81.66741,KFC,44115,OH
8663,3010 Route 50,Saratoga Springs,43.09943179,-73.74909639,KFC,12866,NY
8669,400 N Center St,Westminster,39.57594,-76.98248000000001,KFC,21157,MD
8670,340 Eisenhower Dr,Hanover,39.82498,-76.9849,Chick-fil-A,17331,PA
8671,130 Baltimore Pike,Bel Air,39.5326,-76.34899999999999,KFC,21014,MD
8687,Hw 22,Mandeville,30.395354100000002,-90.09143099,Raising Cane's,70471,LA
8736,1350 E Park Ave,Tallahassee,30.441909999999996,-84.26003,Bojangles,32301,FL
8751,2550 Hilliard Rome Rd,Hilliard,40.003375,-83.153166,Raising Cane's,43026,OH
8756,1671 E Dublin Granville Rd,Columbus,40.08636,-82.97355999999999,KFC,43229,OH
8757,1130 Malabar Rd SE,Palm Bay,27.9981,-80.6371,Chick-fil-A,32907,FL
8783,7565 Mountain Grove Dr,Knoxville,35.90664,-83.83806,Chick-fil-A,37920,TN
8805,7501 Mineral Point Rd,Madison,43.06018395,-89.51304820000001,KFC,53717,WI
8900,839 Delaware Ave,Marysville,40.236,-83.3545,KFC,43040,OH
8904,1262 Vocke Rd Ste 284,Cumberland,39.63143,-78.83501,Chick-fil-A,21502,MD
8924,2995 Cook Rd,West Branch,44.24883,-84.22464000000001,KFC,48661,MI
8928,Highway 5 Market Square Shopping Ctr. Market Square Shopping Ctr.,Douglasville,33.72216838,-84.76326602,KFC,30135,GA
8942,8200 Hamilton Ave,Cincinnati,39.242,-84.5454,KFC,45231,OH
8943,1040 US Highway 1 N,Woodbridge,40.555973,-74.28454,Chick-fil-A,7095,NJ
8944,1545 Richmond Rd,Williamsburg,37.292,-76.7233,KFC,23185,VA
8960,4850 SH 6,Missouri City,29.5779674,-95.58018364,Popeyes,77459-3990,TX
8981,8026 39th Ave,Kenosha,42.55812684,-87.85542868,KFC,53142,WI
8996,1005 Goodman Rd W,Horn Lake,34.96262,-90.00394399999999,KFC,38637,MS
9025,6495 Glenway Ave,Cincinnati,39.15262,-84.62841999999999,Chick-fil-A,45211,OH
9031,27901 Lorain Rd,North Olmsted,41.4113,-81.9312,KFC,44070,OH
9035,700 S El Camino Real,San Clemente,33.423606,-117.609885,KFC,92672,CA
9052,428 Ridge Rd,Munster,41.562,-87.5174,KFC,46321,IN
9064,1691 E Market St,Harrisonburg,38.43303,-78.84609,Chick-fil-A,22801,VA
9067,102 Airport Rd,Shawano,44.7822,-88.5679,KFC,54166,WI
9103,1616 Big Timber Rd,Elgin,42.05867763,-88.31790665,Popeyes,60123,IL
9122,1833 S 4th St,Allentown,40.581753000000006,-75.456825,KFC,18103,PA
9123,3212 Douglas Ave,Racine,42.7588,-87.8015,KFC,53402,WI
9140,2300 N Salisbury Blvd Ste G115,Salisbury,38.40015,-75.57026,Chick-fil-A,21801,MD
9159,40 Princeton Hightstown Rd,Hightstown,40.27467587,-74.5404017,KFC,8520,NJ
9163,1055 US Highway 1,North Brunswick,40.4583,-74.4718,KFC,8902,NJ
9166,805 Dawsonville Hwy,Gainesville,34.29675,-83.85576999999999,Chick-fil-A,30501,GA
9177,675 Georgia Highway 120,Lawrenceville,33.966322999999996,-84.009788,KFC,30045,GA
9190,1614 S Stratford,Winston-Salem,36.070033,-80.304635,Bojangles,27104,NC
9193,4642 Mahoning Ave,Youngstown,41.1009,-80.742,KFC,44515,OH
9219,92 Saint Georges Ave,Rahway,40.5925,-74.2909,KFC,7065,NJ
9224,2170 W Ryan Rd,Oak Creek,42.87265,-87.94442,KFC,53154,WI
9228,171 N Wells St,Lake Geneva,42.5915,-88.4301,KFC,53147,WI
9233,6810 S 27th St,Lincoln,40.74107,-96.68236999999999,Chick-fil-A,68512,NE
9237,24400 E Smoky Hill Rd,Aurora,39.59588,-104.70392,Chick-fil-A,80016,CO
9238,2010 Bloomingdale Ave,Valrico,27.8938,-82.2367,Chick-fil-A,33596,FL
9239,7500 W 135th St,Overland Park,38.883984000000005,-94.671814,Chick-fil-A,66223,KS
9241,17501 W Center Rd,Omaha,41.23409,-96.18854,Chick-fil-A,68130,NE
9242,1800 S Federal Hwy,Delray Beach,26.4394,-80.072,Chick-fil-A,33483,FL
9243,1900 S University Dr,Fort Lauderdale,26.0976,-80.2509,Chick-fil-A,33324,FL
9244,100 N Williamson Blvd,Daytona Beach,29.181604999999998,-81.080262,Chick-fil-A,32114,FL
9246,4260 W Sylvania Ave,Toledo,41.6915,-83.6442,Chick-fil-A,43623,OH
9254,217 Collins Rd NE,Cedar Rapids,42.027229999999996,-91.62959000000001,Chick-fil-A,52402,IA
9258,983 Meridian Ave,San Jose,37.308009999999996,-121.91363999999999,KFC,95126,CA
9260,53 Headquarters Dr,San Jose,37.415753,-121.95351000000001,Chick-fil-A,95134,CA
9263,19307 Soledad Canyon Rd,Canyon Country,34.4161,-118.4732,KFC,91351,CA
9269,406 E 3rd Ave,San Mateo,37.56622,-122.32122,KFC,94401,CA
9287,7147 Philips Hwy,Jacksonville,30.1352,-81.5098,Chick-fil-A,32256,FL
9292,5060 Central Ave NE,Minneapolis,45.0601,-93.2478,KFC,55421,MN
9298,4721 Morse Rd,Columbus,40.0553,-82.8659,KFC,43230,OH
9302,1300 Cameron Ave,Lewis Center,40.15423627,-83.00067902,KFC,43035,OH
9310,6501 NW Barry Rd,Kansas City,39.2463,-94.65394,Chick-fil-A,64154,MO
9318,4828 W Broad St,Columbus,39.95265,-83.12984,KFC,43228,OH
9326,7276 103rd St,Jacksonville,30.2479,-81.7664,KFC,32210,FL
9330,6081 Gender Rd,Canal Winchester,39.85613,-82.82829,KFC,43110,OH
9346,4000 Central Florida Blvd,Orlando,28.410214,-81.42483,Chick-fil-A,32816,FL
9349,24901 Santa Clara St,Hayward,37.648926,-122.09113,Popeyes,94544,CA
9353,8770 Maple St,Omaha,41.2855,-96.0488,KFC,68134,NE
9364,6009 Bullard Ave,New Orleans,30.0447,-89.9592,KFC,70128,LA
9365,1243 Saint Charles Ave,New Orleans,29.94076055,-90.07458687,Popeyes,70130,LA
9368,1804 S Miami Blvd,Durham,35.9455,-78.8385,KFC,27703,NC
9371,13200 SW 8th St,Miami,25.760482999999997,-80.41009,KFC,33184,FL
9372,1570 W Mitchell St,Milwaukee,43.0126,-87.9327,KFC,53204,WI
9375,14790 SW 56th St,Miami,25.713506,-80.432047,KFC,33185,FL
9391,11104 E 21st St,Tulsa,36.1331,-95.8528,KFC,74129,OK
9396,415 Gallatin Pike N,Madison,36.2666,-86.7113,KFC,37115,TN
9497,666 Bushwick Ave,Brooklyn,40.697245,-73.93215500000001,KFC,11221,NY
9537,17239 Brookhurst St,Fountain Valley,33.7128,-117.955,KFC,92708,CA
9562,1830 W Laskey Rd,Toledo,41.7072,-83.5888,KFC,43613,OH
9566,3605 E Thousand Oaks Blvd,Thousand Oaks,34.165253,-118.83091999999999,KFC,91362,CA
9569,705 W Baseline Rd,Tempe,33.377777,-111.94993600000001,KFC,85283,AZ
9573,625 E Carmel Dr,Carmel,39.962036,-86.11618,Popeyes,46032,IN
9577,3423 Ulmerton Rd,Clearwater,27.893936,-82.680965,Chick-fil-A,33762,FL
9578,12031 N Tatum Blvd,Phoenix,33.59666,-111.98095,Chick-fil-A,85028,AZ
9621,124 Loop 59,Atlanta,33.11533,-94.18138,Chicken Express,75551,TX
9626,6803 Us Highway 61,Saint Francisville,30.78528,-91.36718,Krispy Krunchy Chicken,70775,LA
9627,Highway 23,Port Sulphur,29.515190000000004,-89.72628,Krispy Krunchy Chicken,70083,LA
9636,Highway 20,Vacherie,29.968940000000003,-90.71596,Krispy Krunchy Chicken,70090,LA
9637,612 N Canal Blvd,Thibodaux,29.81164,-90.81551,Wingstop,70301,LA
9638,1562 Grand Caillou Rd,Houma,29.57116,-90.68353,Krispy Krunchy Chicken,70363,LA
9641,1005 Greenwood St,Morgan City,29.70106,-91.2003,KFC,70380,LA
9683,7425 Highway 6,Hitchcock,29.3461,-95.01106999999999,Krispy Krunchy Chicken,77563,TX
9705,5389 Us Highway 59 N,Lufkin,31.26632,-94.74271,Krispy Krunchy Chicken,75901,TX
9720,212 E Loop 281,Longview,32.541990000000006,-94.7425,Raising Cane's,75605,TX
9722,902 W Central Texas Expy Ste E,Killeen,31.106270000000002,-97.74743000000001,Wingstop,76541,TX
9751,3101 Pga Blvd,Palm Beach Gardens,26.845036999999998,-80.08300899999999,Chick-fil-A,33410,FL
9752,7415 S Orange Blossom Trl,Orlando,28.457946999999997,-81.398656,Chick-fil-A,32809,FL
9753,10 W Indian River Blvd,Edgewater,28.97232,-80.89609200000001,Chick-fil-A,32141,FL
9754,5020 Bayou Blvd,Pensacola,30.472488000000002,-87.210132,Chick-fil-A,32503,FL
9755,3050 E Semoran Blvd,Apopka,28.67036,-81.45336999999999,Chick-fil-A,32703,FL
9756,1757 E Nine Mile Rd,Pensacola,30.532172999999997,-87.224751,Chick-fil-A,32514,FL
9757,7333 W Sand Lake Rd,Orlando,28.450074,-81.479244,Chick-fil-A,32819,FL
9758,4752 S Kirkman Rd,Orlando,28.492914000000003,-81.459085,Chick-fil-A,32811,FL
9759,3558 SW College Rd,Ocala,29.155203000000004,-82.180031,Chick-fil-A,34474,FL
9760,9398 Atlantic Blvd,Jacksonville,30.318067,-81.555262,Chick-fil-A,32225,FL
9761,6050 W Irlo Bronson Memorial Hwy,Kissimmee,28.332715000000004,-81.52441400000001,Chick-fil-A,34747,FL
9762,9501 Arlington Expy,Jacksonville,30.321690000000004,-81.5501,Chick-fil-A,32225,FL
9763,7891 W Irlo Bronson Memorial Hwy,Kissimmee,28.345198999999997,-81.601894,Chick-fil-A,34747,FL
9764,4461 Southside Blvd,Jacksonville,30.26395,-81.556777,Chick-fil-A,32216,FL
9766,15801 N Dale Mabry Hwy,Tampa,28.095845,-82.501425,Chick-fil-A,33618,FL
9767,10300 Southside Blvd,Jacksonville,30.185734000000004,-81.551825,Chick-fil-A,32256,FL
9768,13610 S Tamiami Trl,Fort Myers,26.544798999999998,-81.87219499999999,Chick-fil-A,33912,FL
9769,6000 Glades Rd,Boca Raton,26.368595000000003,-80.137186,Chick-fil-A,33431,FL
9795,1200 SW Green Oaks Blvd,Arlington,32.6592,-97.1333,Popeyes,76017,TX
9803,5711 Columbia Pike,Falls Church,38.8512,-77.1272,KFC,22041,VA
9808,527 Franklin Mills Cir,Philadelphia,40.08174,-74.9616,KFC,19154,PA
9814,5700 Baltimore Ave,Philadelphia,39.946,-75.2376,KFC,19143,PA
9818,6310 Backlick Rd,Springfield,38.7815,-77.1858,KFC,22150,VA
9822,990 W Commercial Blvd,Fort Lauderdale,26.188000000000002,-80.1563,KFC,33309,FL
9831,8161 La Palma Ave,Buena Park,33.847126,-117.990845,Chick-fil-A,90620,CA
9835,1050 S Beach Blvd,La Habra,33.919129999999996,-117.96767,KFC,90631,CA
9842,2444 S 132nd St,Omaha,41.23600901,-96.12010856,KFC,68144,NE
9844,3734 MacArthur Blvd,Oakland,37.792,-122.1987,KFC,94619,CA
9846,7601 N 30th St,Omaha,41.32942106,-95.95815182,KFC,68112,NE
9866,8669 W 135th St,Overland Park,38.88357,-94.68602,KFC,66223,KS
9867,3104 Cleveland Ave NW,Canton,40.8331,-81.3879,KFC,44709,OH
9868,420 Howe Ave,Cuyahoga Falls,41.1188,-81.4799,Chick-fil-A,44221,OH
9881,274 Delaware Ave,Albany,42.64306475,-73.77592486,KFC,12209,NY
9884,5110 Capitol Blvd SE,Olympia,47.0021,-122.9093,KFC,98501,WA
9925,109 State St,Schenectady,42.8154,-73.9471,KFC,12305,NY
9928,4117 N Josey Ln,Carrollton,33.02374752,-96.88556406,KFC,75007,TX
9932,100 N University Dr,Edmond,35.655879999999996,-97.47493,Chick-fil-A,73034,OK
9934,71 N Nellis Blvd,Las Vegas,36.161204999999995,-115.062675,KFC,89110,NV
9935,4924 Boulder Hwy,Las Vegas,36.114470000000004,-115.0665,KFC,89121,NV
9936,7710 Wise Ave,Dundalk,39.26979,-76.5016,KFC,21222,MD
9941,7306 McClean Blvd,Parkville,39.372797,-76.567488,KFC,21234,MD
9954,1128 Manhattan Blvd,Harvey,29.89727027,-90.06263171,Chick-fil-A,70058,LA
9958,4507 Lake Worth Rd,Lake Worth,26.61898,-80.11514,KFC,33463,FL
9960,442 N Weber Rd,Romeoville,41.640266,-88.12476,KFC,60446,IL
9992,351 E Channel Islands Blvd,Port Hueneme,34.176120000000004,-119.19556999999999,KFC,93041,CA
